     2.10           N: GPS NAV DATA                         RINEX VERSION / TYPE
JPS2RIN v.2.0.112   JAVAD GNSS          20190621 150540 UTC PGM / RUN BY / DATE
    18                                                      LEAP SECONDS
    4.6566D-09  1.4901D-08 -5.9605D-08 -1.1921D-07          ION ALPHA
    8.1920D+04  9.8304D+04 -6.5536D+04 -5.2429D+05          ION BETA
                                                            END OF HEADER
10 19  6 21 16  0  0.0 8.963048458099D-06-1.216449163621D-11 0.000000000000D+00
    7.100000000000D+01-6.100000000000D+01 4.106599627787D-09-2.076857881353D+00
   -3.142282366753D-06 4.616204299964D-03 9.732320904732D-06 5.153665924072D+03
    4.896000000000D+05-7.264316082001D-08-2.318184562058D+00-4.470348358154D-08
    9.631764858810D-01 1.943750000000D+02-2.697674197164D+00-7.649247193278D-09
    2.057228548969D-10 1.000000000000D+00 2.058000000000D+03 0.000000000000D+00
    2.000000000000D+00 0.000000000000D+00 1.862645149231D-09 7.100000000000D+01
    4.833600000000D+05 4.000000000000D+00
13 19  6 21 16  0  0.0-5.805119872093D-05 1.705302565824D-12 0.000000000000D+00
    6.600000000000D+01 1.534375000000D+01 4.554475426468D-09 1.180326900485D+00
    7.580965757370D-07 3.523858613335D-03 6.411224603653D-06 5.153658905029D+03
    4.896000000000D+05-1.676380634308D-08-1.145003418057D+00-1.303851604462D-08
    9.675128588741D-01 2.577500000000D+02 1.270156917008D+00-8.026405760589D-09
    2.996553389905D-10 1.000000000000D+00 2.058000000000D+03 0.000000000000D+00
    2.000000000000D+00 0.000000000000D+00-1.117587089539D-08 6.600000000000D+01
    4.837800000000D+05 4.000000000000D+00
15 19  6 21 16  0  0.0-3.056740388274D-04 2.387423592154D-12 0.000000000000D+00
    2.300000000000D+01 1.340625000000D+01 5.406653780260D-09 1.283059253208D+00
    7.785856723785D-07 1.137358532287D-02 7.448717951775D-06 5.153704154968D+03
    4.896000000000D+05-1.210719347000D-07-1.363364138434D+00 7.823109626770D-08
    9.275570507371D-01 2.211250000000D+02 7.810104917190D-01-8.513211752298D-09
    2.817974522807D-10 1.000000000000D+00 2.058000000000D+03 0.000000000000D+00
    2.000000000000D+00 0.000000000000D+00-1.117587089539D-08 2.300000000000D+01
    4.833600000000D+05 4.000000000000D+00
16 19  6 21 16  0  0.0-4.991469904780D-05-3.069544618484D-12 0.000000000000D+00
    7.700000000000D+01 7.131250000000D+01 3.893019302737D-09 3.059093303469D+00
    3.626570105553D-06 1.076280488633D-02 9.415671229362D-06 5.153596445084D+03
    4.896000000000D+05-9.872019290924D-08 9.122392627012D-01-1.266598701477D-07
    9.829766198018D-01 2.114687500000D+02 5.815087793405D-01-7.482811689142D-09
   -2.892977646988D-11 1.000000000000D+00 2.058000000000D+03 0.000000000000D+00
    2.000000000000D+00 0.000000000000D+00-1.071020960808D-08 7.700000000000D+01
    4.833600000000D+05 4.000000000000D+00
20 19  6 21 16  0  0.0 5.255211144686D-04 2.273736754432D-13 0.000000000000D+00
    1.900000000000D+01-7.112500000000D+01 4.857345185067D-09-4.010750645120D-01
   -3.688037395477D-06 4.492258070968D-03 9.600073099136D-06 5.153697116852D+03
    4.896000000000D+05-7.450580596924D-08-2.437529998280D+00-1.899898052216D-07
    9.310545031172D-01 1.835312500000D+02 2.380163478357D+00-8.122838348822D-09
    5.821671067396D-11 1.000000000000D+00 2.058000000000D+03 0.000000000000D+00
    2.000000000000D+00 0.000000000000D+00-8.847564458847D-09 1.900000000000D+01
    4.833600000000D+05 4.000000000000D+00
21 19  6 21 16  0  0.0-1.689377240837D-04 7.162270776462D-12 0.000000000000D+00
    8.700000000000D+01-7.006250000000D+01 4.752697968947D-09-1.863152886059D+00
   -3.321096301079D-06 2.453685621731D-02 3.548339009285D-06 5.153718845367D+03
    4.896000000000D+05 2.402812242508D-07 2.861551718452D+00 5.923211574554D-07
    9.490973783783D-01 3.011250000000D+02-1.435142980563D+00-8.150696652089D-09
   -2.828689254833D-10 1.000000000000D+00 2.058000000000D+03 0.000000000000D+00
    2.000000000000D+00 0.000000000000D+00-1.024454832077D-08 8.700000000000D+01
    4.833600000000D+05 4.000000000000D+00
26 19  6 21 16  0  0.0 2.325433306396D-04 9.436007530894D-12 0.000000000000D+00
    3.000000000000D+01 5.993750000000D+01 4.645193490954D-09-2.306753950704D+00
    2.969056367874D-06 3.731067059562D-03 9.430572390556D-06 5.153626792908D+03
    4.896000000000D+05-4.842877388000D-08 7.996776029020D-01-7.078051567078D-08
    9.514028948466D-01 1.956875000000D+02 1.653115569756D-01-7.975689362333D-09
   -7.464596644698D-11 1.000000000000D+00 2.058000000000D+03 0.000000000000D+00
    2.000000000000D+00 0.000000000000D+00 7.450580596924D-09 3.000000000000D+01
    4.835400000000D+05 4.000000000000D+00
27 19  6 21 16  0  0.0-1.639402471483D-04-1.023181539495D-11 0.000000000000D+00
    3.400000000000D+01 5.793750000000D+01 4.326251634317D-09 2.130514707278D+00
    2.985820174217D-06 7.151554222219D-03 3.844499588013D-06 5.153646993637D+03
    4.896000000000D+05-2.365559339523D-07 1.870850683458D+00 2.048909664154D-08
    9.783829136669D-01 3.158125000000D+02 5.085358347187D-01-8.063550164945D-09
    1.539349834385D-10 1.000000000000D+00 2.058000000000D+03 0.000000000000D+00
    2.000000000000D+00 0.000000000000D+00 1.396983861923D-09 3.400000000000D+01
    4.833600000000D+05 4.000000000000D+00
 8 19  6 21 16  0  0.0-1.482963562012D-04-1.477928890381D-12 0.000000000000D+00
    9.200000000000D+01 5.828125000000D+01 4.536617539759D-09 2.306931910300D+00
    3.213062882423D-06 4.391674185172D-03 3.738328814507D-06 5.153758468628D+03
    4.896000000000D+05-1.862645149231D-08 1.859293496043D+00 1.825392246246D-07
    9.700850155690D-01 3.131875000000D+02-2.087383181945D-01-8.200341577142D-09
    1.189335254873D-10 1.000000000000D+00 2.058000000000D+03 0.000000000000D+00
    2.000000000000D+00 0.000000000000D+00 5.122274160385D-09 9.200000000000D+01
    4.833600000000D+05 4.000000000000D+00
